CCSDS_OMM_VERS,COMMENT,CREATION_DATE,ORIGINATOR,OBJECT_NAME,OBJECT_ID,CENTER_NAME,REF_FRAME,TIME_SYSTEM,MEAN_ELEMENT_THEORY,EPOCH,MEAN_MOTION,ECCENTRICITY,INCLINATION,RA_OF_ASC_NODE,ARG_OF_PERICENTER,MEAN_ANOMALY,EPHEMERIS_TYPE,CLASSIFICATION_TYPE,NORAD_CAT_ID,ELEMENT_SET_NO,REV_AT_EPOCH,BSTAR,MEAN_MOTION_DOT,MEAN_MOTION_DDOT,SEMIMAJOR_AXIS,PERIOD,APOAPSIS,PERIAPSIS,OBJECT_TYPE,RCS_SIZE,COUNTRY_CODE,LAUNCH_DATE,SITE,DECAY_DATE,FILE,GP_ID,TLE_LINE0,TLE_LINE1,TLE_LINE2
2,GENERATED VIA SPACE-TRACK.ORG API,2012-08-11T08:56:01,18 SPCS,GALILEO-FM2,2011-060B,EARTH,TEME,UTC,SGP4,2012-08-10T15:56:42.849311,1.70474853,0.000412,54.7719,121.5386,289.5064,70.4904,0,U,37847,999,501,0.0001,-2.9e-07,0,29600.24,844.699,23234.3,23209.909,PAYLOAD,LARGE,ESA,2011-10-21,FRGUI,,1333153,90036486,0 GALILEO-FM2,1 37847U 11060B   12223.66438483 -.00000029 +00000-0 +10000-3 0  9995,2 37847 054.7719 121.5386 0004120 289.5064 070.4904 01.70474853005010
2,GENERATED VIA SPACE-TRACK.ORG API,2012-08-12T09:49:49,18 SPCS,GALILEO-FM2,2011-060B,EARTH,TEME,UTC,SGP4,2012-08-11T20:06:03.911327,1.70474866,0.000405,54.7724,121.5056,289.4761,70.5219,0,U,37847,999,503,0.0001,-2.6e-07,0,29600.238,844.699,23234.091,23210.115,PAYLOAD,LARGE,ESA,2011-10-21,FRGUI,,1333599,90053798,0 GALILEO-FM2,1 37847U 11060B   12224.83754527 -.00000026  00000-0  10000-3 0  9992,2 37847 054.7724 121.5056 0004050 289.4761 070.5219 01.70474866  5031
2,GENERATED VIA SPACE-TRACK.ORG API,2012-08-14T08:43:54,18 SPCS,GALILEO-FM2,2011-060B,EARTH,TEME,UTC,SGP4,2012-08-13T14:20:06.256896,1.70474845,0.0003994,54.7728,121.4562,289.4519,70.5515,0,U,37847,999,506,0.0001,-1.9e-07,0,29600.241,844.699,23233.928,23210.283,PAYLOAD,LARGE,ESA,2011-10-21,FRGUI,,1334577,90083061,0 GALILEO-FM2,1 37847U 11060B   12226.59729464 -.00000019 +00000-0 +10000-3 0  9991,2 37847 054.7728 121.4562 0003994 289.4519 070.5515 01.70474845005062
2,GENERATED VIA SPACE-TRACK.ORG API,2012-08-14T17:18:53,18 SPCS,GALILEO-FM2,2011-060B,EARTH,TEME,UTC,SGP4,2012-08-14T18:29:28.318560,1.70474838,0.0003914,54.7733,121.4231,289.1864,70.8239,0,U,37847,999,508,0.0001,-1.3e-07,0,29600.241,844.699,23233.692,23210.521,PAYLOAD,LARGE,ESA,2011-10-21,FRGUI,,1335073,90087189,0 GALILEO-FM2,1 37847U 11060B   12227.77046665 -.00000013  00000-0  10000-3 0  9991,2 37847 054.7733 121.4231 0003914 289.1864 070.8239 01.70474838  5083
2,GENERATED VIA SPACE-TRACK.ORG API,2012-08-16T08:53:06,18 SPCS,GALILEO-FM2,2011-060B,EARTH,TEME,UTC,SGP4,2012-08-15T08:34:09.605568,1.70474853,0.0003899,54.7733,121.407,289.5456,70.4711,0,U,37847,999,509,0.0001,-1e-07,0,29600.24,844.699,23233.646,23210.564,PAYLOAD,LARGE,ESA,2011-10-21,FRGUI,,1335886,90112237,0 GALILEO-FM2,1 37847U 11060B   12228.35705562 -.00000010 +00000-0 +10000-3 0  9991,2 37847 054.7733 121.4070 0003899 289.5456 070.4711 01.70474853005096
2,GENERATED VIA SPACE-TRACK.ORG API,2012-08-17T08:30:47,18 SPCS,GALILEO-FM2,2011-060B,EARTH,TEME,UTC,SGP4,2012-08-15T22:38:50.619552,1.70474857,0.0003854,54.7736,121.3907,289.4219,70.5985,0,U,37847,999,510,0.0001,-6e-08,0,29600.239,844.699,23233.512,23210.696,PAYLOAD,LARGE,ESA,2011-10-21,FRGUI,,1336358,90127292,0 GALILEO-FM2,1 37847U 11060B   12228.94364143 -.00000006 +00000-0 +10000-3 0  9997,2 37847 054.7736 121.3907 0003854 289.4219 070.5985 01.70474857005104
2,GENERATED VIA SPACE-TRACK.ORG API,2012-08-18T09:33:04,18 SPCS,GALILEO-FM2,2011-060B,EARTH,TEME,UTC,SGP4,2012-08-16T12:43:31.811520,1.70474862,0.0003817,54.7738,121.374,289.1756,70.8499,0,U,37847,999,511,0.0001,-2e-08,0,29600.239,844.699,23233.402,23210.805,PAYLOAD,LARGE,ESA,2011-10-21,FRGUI,,1336976,90143929,0 GALILEO-FM2,1 37847U 11060B   12229.53022930 -.00000002 +00000-0 +10000-3 0  9994,2 37847 054.7738 121.3740 0003817 289.1756 070.8499 01.70474862005113
2,GENERATED VIA SPACE-TRACK.ORG API,2012-08-18T01:36:54,18 SPCS,GALILEO-FM2,2011-060B,EARTH,TEME,UTC,SGP4,2012-08-17T16:52:53.979456,1.7047487,0.0003795,54.7742,121.3409,288.8533,71.1813,0,U,37847,999,513,0.0001,4e-08,0,29600.238,844.699,23233.336,23210.869,PAYLOAD,LARGE,ESA,2011-10-21,FRGUI,,1336832,90134179,0 GALILEO-FM2,1 37847U 11060B   12230.70340254  .00000004  00000-0  10000-3 0  9998,2 37847 054.7742 121.3409 0003795 288.8533 071.1813 01.70474870  5139
2,GENERATED VIA SPACE-TRACK.ORG API,2012-08-19T09:19:37,18 SPCS,GALILEO-FM2,2011-060B,EARTH,TEME,UTC,SGP4,2012-08-18T06:57:34.903583,1.70474875,0.0003788,54.7744,121.3245,288.7724,71.2655,0,U,37847,999,514,0.0001,7e-08,0,29600.237,844.699,23233.315,23210.89,PAYLOAD,LARGE,ESA,2011-10-21,FRGUI,,1337347,90159721,0 GALILEO-FM2,1 37847U 11060B   12231.28998731 +.00000007 +00000-0 +10000-3 0  9994,2 37847 054.7744 121.3245 0003788 288.7724 071.2655 01.70474875005143
2,GENERATED VIA SPACE-TRACK.ORG API,2012-08-20T09:20:39,18 SPCS,GALILEO-FM2,2011-060B,EARTH,TEME,UTC,SGP4,2012-08-18T21:02:15.745632,1.70474893,0.0003758,54.7746,121.3081,289.1634,70.878,0,U,37847,999,515,0.0001,9e-08,0,29600.235,844.699,23233.224,23210.976,PAYLOAD,LARGE,ESA,2011-10-21,FRGUI,,1337735,90175421,0 GALILEO-FM2,1 37847U 11060B   12231.87657113 +.00000009 +00000-0 +10000-3 0  9997,2 37847 054.7746 121.3081 0003758 289.1634 070.8780 01.70474893005150
2,GENERATED VIA SPACE-TRACK.ORG API,2012-08-20T09:33:33,18 SPCS,GALILEO-FM2,2011-060B,EARTH,TEME,UTC,SGP4,2012-08-20T01:11:37.031424,1.70474904,0.0003746,54.7749,121.2751,289.1018,70.9425,0,U,37847,999,517,0.0001,1e-07,0,29600.234,844.699,23233.187,23211.011,PAYLOAD,LARGE,ESA,2011-10-21,FRGUI,,1337751,90175946,0 GALILEO-FM2,1 37847U 11060B   12233.04973416  .00000010  00000-0  10000-3 0  9997,2 37847 054.7749 121.2751 0003746 289.1018 070.9425 01.70474904  5171
2,GENERATED VIA SPACE-TRACK.ORG API,2012-08-22T10:24:52,18 SPCS,GALILEO-FM2,2011-060B,EARTH,TEME,UTC,SGP4,2012-08-21T05:20:57.706367,1.70474935,0.0003701,54.7752,121.2421,288.9869,71.0568,0,U,37847,999,519,0.0001,7e-08,0,29600.23,844.698,23233.05,23211.14,PAYLOAD,LARGE,ESA,2011-10-21,FRGUI,,1338989,90208042,0 GALILEO-FM2,1 37847U 11060B   12234.22289012 +.00000007 +00000-0 +10000-3 0  9996,2 37847 054.7752 121.2421 0003701 288.9869 071.0568 01.70474935005197
2,GENERATED VIA SPACE-TRACK.ORG API,2012-08-23T08:38:15,18 SPCS,GALILEO-FM2,2011-060B,EARTH,TEME,UTC,SGP4,2012-08-21T19:25:37.818336,1.70474944,0.0003706,54.7753,121.2256,288.8416,71.1999,0,U,37847,999,520,0.0001,4e-08,0,29600.229,844.698,23233.064,23211.124,PAYLOAD,LARGE,ESA,2011-10-21,FRGUI,,1339405,90223323,0 GALILEO-FM2,1 37847U 11060B   12234.80946549 +.00000004 +00000-0 +10000-3 0  9992,2 37847 054.7753 121.2256 0003706 288.8416 071.1999 01.70474944005207
2,GENERATED VIA SPACE-TRACK.ORG API,2012-08-23T05:49:49,18 SPCS,GALILEO-FM2,2011-060B,EARTH,TEME,UTC,SGP4,2012-08-22T23:34:57.956736,1.70474962,0.0003648,54.7756,121.1928,288.7422,71.2942,0,U,37847,999,522,0.0001,-5e-08,0,29600.227,844.698,23232.89,23211.294,PAYLOAD,LARGE,ESA,2011-10-21,FRGUI,,1339357,90215096,0 GALILEO-FM2,1 37847U 11060B   12235.98261524 -.00000005  00000-0  10000-3 0  9997,2 37847 054.7756 121.1928 0003648 288.7422 071.2942 01.70474962  5227
2,GENERATED VIA SPACE-TRACK.ORG API,2012-08-25T13:16:27,18 SPCS,GALILEO-FM2,2011-060B,EARTH,TEME,UTC,SGP4,2012-08-24T17:48:58.418783,1.70474972,0.0003578,54.7762,121.1435,289.1361,70.8936,0,U,37847,999,525,0.0001,-1.7e-07,0,29600.226,844.698,23232.682,23211.5,PAYLOAD,LARGE,ESA,2011-10-21,FRGUI,,1340368,90256068,0 GALILEO-FM2,1 37847U 11060B   12237.74234281 -.00000017 +00000-0 +10000-3 0  9996,2 37847 054.7762 121.1435 0003578 289.1361 070.8936 01.70474972005258
2,GENERATED VIA SPACE-TRACK.ORG API,2012-08-26T11:16:59,18 SPCS,GALILEO-FM2,2011-060B,EARTH,TEME,UTC,SGP4,2012-08-24T17:48:58.446431,1.70474973,0.0003573,54.7761,121.1435,289.1567,70.8732,0,U,37847,999,525,0.0001,-1.7e-07,0,29600.226,844.698,23232.667,23211.515,PAYLOAD,LARGE,ESA,2011-10-21,FRGUI,,1340732,90271954,0 GALILEO-FM2,1 37847U 11060B   12237.74234313 -.00000017 +00000-0 +10000-3 0  9992,2 37847 054.7761 121.1435 0003573 289.1567 070.8732 01.70474973005255
2,GENERATED VIA SPACE-TRACK.ORG API,2012-08-26T09:34:22,18 SPCS,GALILEO-FM2,2011-060B,EARTH,TEME,UTC,SGP4,2012-08-25T21:58:19.161119,1.7047497,0.0003582,54.7766,121.1105,289.1322,70.8961,0,U,37847,999,527,0.0001,-2.2e-07,0,29600.226,844.698,23232.694,23211.488,PAYLOAD,LARGE,ESA,2011-10-21,FRGUI,,1340698,90262875,0 GALILEO-FM2,1 37847U 11060B   12238.91549955 -.00000022  00000-0  10000-3 0  9999,2 37847 054.7766 121.1105 0003582 289.1322 070.8961 01.70474970  5276
2,GENERATED VIA SPACE-TRACK.ORG API,2012-08-28T08:41:28,18 SPCS,GALILEO-FM2,2011-060B,EARTH,TEME,UTC,SGP4,2012-08-27T16:12:21.300192,1.70474958,0.0003529,54.7772,121.0608,288.851,71.1812,0,U,37847,999,530,0.0001,-2e-07,0,29600.228,844.698,23232.539,23211.647,PAYLOAD,LARGE,ESA,2011-10-21,FRGUI,,1341560,90301365,0 GALILEO-FM2,1 37847U 11060B   12240.67524653 -.00000020 +00000-0 +10000-3 0  9991,2 37847 054.7772 121.0608 0003529 288.8510 071.1812 01.70474958005305
2,GENERATED VIA SPACE-TRACK.ORG API,2012-08-29T08:39:41,18 SPCS,GALILEO-FM2,2011-060B,EARTH,TEME,UTC,SGP4,2012-08-27T16:12:21.538656,1.70474957,0.0003557,54.7772,121.0613,289.396,70.638,0,U,37847,999,530,0.0001,-2e-07,0,29600.228,844.698,23232.622,23211.564,PAYLOAD,LARGE,ESA,2011-10-21,FRGUI,,1342241,90316690,0 GALILEO-FM2,1 37847U 11060B   12240.67524929 -.00000020 +00000-0 +10000-3 0  9997,2 37847 054.7772 121.0613 0003557 289.3960 070.6380 01.70474957005300
2,GENERATED VIA SPACE-TRACK.ORG API,2012-08-29T10:15:51,18 SPCS,GALILEO-FM2,2011-060B,EARTH,TEME,UTC,SGP4,2012-08-28T20:21:43.372223,1.70474957,0.0003546,54.7776,121.0281,289.0219,71.0183,0,U,37847,999,532,0.0001,-1.4e-07,0,29600.228,844.698,23232.589,23211.596,PAYLOAD,LARGE,ESA,2011-10-21,FRGUI,,1342335,90318781,0 GALILEO-FM2,1 37847U 11060B   12241.84841866 -.00000014  00000-0  10000-3 0  9992,2 37847 054.7776 121.0281 0003546 289.0219 071.0183 01.70474957  5325
